[{"OBJECT_NAME":"HERMES-5","OBJECT_ID":"2025-052BQ","EPOCH":"2026-03-09T22:33:51.245280","MEAN_MOTION":15.26210393,"ECCENTRICITY":0.0006071,"INCLINATION":97.4082,"RA_OF_ASC_NODE":324.1247,"ARG_OF_PERICENTER":124.4334,"MEAN_ANOMALY":235.7479,"EPHEMERIS_TYPE":0,"CLASSIFICATION_TYPE":"U","NORAD_CAT_ID":63834,"ELEMENT_SET_NO":999,"REV_AT_EPOCH":5480,"BSTAR":0.00068450239,"MEAN_MOTION_DOT":0.00017673,"MEAN_MOTION_DDOT":0},{"OBJECT_NAME":"STARLINK-35738","OBJECT_ID":"2025-299Q","EPOCH":"2026-03-09T08:00:01.000224","MEAN_MOTION":15.40394704,"ECCENTRICITY":0.00013093,"INCLINATION":43.0009,"RA_OF_ASC_NODE":170.8346,"ARG_OF_PERICENTER":273.8044,"MEAN_ANOMALY":91.1615,"EPHEMERIS_TYPE":0,"CLASSIFICATION_TYPE":"U","NORAD_CAT_ID":67116,"ELEMENT_SET_NO":999,"REV_AT_EPOCH":592,"BSTAR":-0.056764549,"MEAN_MOTION_DOT":-0.02079847,"MEAN_MOTION_DDOT":0}]
