HERMES-5                
1 63834U 25052BQ  26068.94017645  .00017673  00000+0  68450-3 0  9995
2 63834  97.4082 324.1247 0006071 124.4334 235.7479 15.26210393 54800
STARLINK-35738          
1 67116U 25299Q   26068.33334491 -.02079847  00000+0 -56765-1 0  9998
2 67116  43.0009 170.8346 0001309 273.8044  91.1615 15.40394704  5925
